[{"OBJECT_NAME":"KINEIS-5E","OBJECT_ID":"2024-219C","EPOCH":"2026-03-15T06:07:36.458976","MEAN_MOTION":14.7235619,"ECCENTRICITY":0.00042137,"INCLINATION":97.9499,"RA_OF_ASC_NODE":235.7583,"ARG_OF_PERICENTER":130.3837,"MEAN_ANOMALY":229.7739,"EPHEMERIS_TYPE":0,"CLASSIFICATION_TYPE":"U","NORAD_CAT_ID":62083,"ELEMENT_SET_NO":999,"REV_AT_EPOCH":6994,"BSTAR":0.00016975762,"MEAN_MOTION_DOT":1.025e-5,"MEAN_MOTION_DDOT":0},{"OBJECT_NAME":"KINEIS-5A","OBJECT_ID":"2024-219D","EPOCH":"2026-03-15T06:54:42.342912","MEAN_MOTION":14.722014,"ECCENTRICITY":0.00030293,"INCLINATION":97.9685,"RA_OF_ASC_NODE":235.9103,"ARG_OF_PERICENTER":178.6438,"MEAN_ANOMALY":181.4779,"EPHEMERIS_TYPE":0,"CLASSIFICATION_TYPE":"U","NORAD_CAT_ID":62084,"ELEMENT_SET_NO":999,"REV_AT_EPOCH":6995,"BSTAR":0.00013886912,"MEAN_MOTION_DOT":8.27e-6,"MEAN_MOTION_DDOT":0},{"OBJECT_NAME":"KINEIS-5B","OBJECT_ID":"2024-219E","EPOCH":"2026-03-15T07:07:58.213920","MEAN_MOTION":14.78096189,"ECCENTRICITY":0.00018999,"INCLINATION":97.9948,"RA_OF_ASC_NODE":238.7396,"ARG_OF_PERICENTER":173.9535,"MEAN_ANOMALY":186.1699,"EPHEMERIS_TYPE":0,"CLASSIFICATION_TYPE":"U","NORAD_CAT_ID":62085,"ELEMENT_SET_NO":999,"REV_AT_EPOCH":7013,"BSTAR":0.00026623435,"MEAN_MOTION_DOT":1.874e-5,"MEAN_MOTION_DDOT":0},{"OBJECT_NAME":"KINEIS-2C","OBJECT_ID":"2025-028B","EPOCH":"2026-03-15T07:11:56.353056","MEAN_MOTION":14.72334221,"ECCENTRICITY":5.727e-5,"INCLINATION":98.0263,"RA_OF_ASC_NODE":129.3967,"ARG_OF_PERICENTER":28.5915,"MEAN_ANOMALY":331.5323,"EPHEMERIS_TYPE":0,"CLASSIFICATION_TYPE":"U","NORAD_CAT_ID":62929,"ELEMENT_SET_NO":999,"REV_AT_EPOCH":5879,"BSTAR":0.00022023729,"MEAN_MOTION_DOT":1.343e-5,"MEAN_MOTION_DDOT":0},{"OBJECT_NAME":"KINEIS-2D","OBJECT_ID":"2025-028C","EPOCH":"2026-03-15T01:30:40.994208","MEAN_MOTION":14.7536725,"ECCENTRICITY":0.00044,"INCLINATION":97.9403,"RA_OF_ASC_NODE":128.2951,"ARG_OF_PERICENTER":133.5624,"MEAN_ANOMALY":226.5951,"EPHEMERIS_TYPE":0,"CLASSIFICATION_TYPE":"U","NORAD_CAT_ID":62930,"ELEMENT_SET_NO":999,"REV_AT_EPOCH":5883,"BSTAR":0.00032207173,"MEAN_MOTION_DOT":2.135e-5,"MEAN_MOTION_DDOT":0},{"OBJECT_NAME":"KINEIS-2E","OBJECT_ID":"2025-028D","EPOCH":"2026-03-15T01:12:27.165888","MEAN_MOTION":14.76735451,"ECCENTRICITY":0.00020165,"INCLINATION":97.907,"RA_OF_ASC_NODE":127.6577,"ARG_OF_PERICENTER":105.8828,"MEAN_ANOMALY":254.2605,"EPHEMERIS_TYPE":0,"CLASSIFICATION_TYPE":"U","NORAD_CAT_ID":62931,"ELEMENT_SET_NO":999,"REV_AT_EPOCH":5888,"BSTAR":0.00024524765,"MEAN_MOTION_DOT":1.668e-5,"MEAN_MOTION_DDOT":0},{"OBJECT_NAME":"KINEIS-2A","OBJECT_ID":"2025-028E","EPOCH":"2026-03-15T01:22:34.630464","MEAN_MOTION":14.72116697,"ECCENTRICITY":0.00027161,"INCLINATION":98.0795,"RA_OF_ASC_NODE":129.5303,"ARG_OF_PERICENTER":184.7354,"MEAN_ANOMALY":175.3828,"EPHEMERIS_TYPE":0,"CLASSIFICATION_TYPE":"U","NORAD_CAT_ID":62932,"ELEMENT_SET_NO":999,"REV_AT_EPOCH":5875,"BSTAR":0.00022388062,"MEAN_MOTION_DOT":1.359e-5,"MEAN_MOTION_DDOT":0},{"OBJECT_NAME":"KINEIS-2B","OBJECT_ID":"2025-028G","EPOCH":"2026-03-15T03:24:45.395712","MEAN_MOTION":14.73133535,"ECCENTRICITY":0.00049676,"INCLINATION":97.9781,"RA_OF_ASC_NODE":128.6795,"ARG_OF_PERICENTER":96.2195,"MEAN_ANOMALY":263.9579,"EPHEMERIS_TYPE":0,"CLASSIFICATION_TYPE":"U","NORAD_CAT_ID":62934,"ELEMENT_SET_NO":999,"REV_AT_EPOCH":5881,"BSTAR":0.00023953326,"MEAN_MOTION_DOT":1.494e-5,"MEAN_MOTION_DDOT":0},{"OBJECT_NAME":"KINEIS-4E","OBJECT_ID":"2025-056A","EPOCH":"2026-03-13T06:55:13.853856","MEAN_MOTION":14.72266799,"ECCENTRICITY":9.221e-5,"INCLINATION":97.9879,"RA_OF_ASC_NODE":198.5336,"ARG_OF_PERICENTER":169.211,"MEAN_ANOMALY":190.9117,"EPHEMERIS_TYPE":0,"CLASSIFICATION_TYPE":"U","NORAD_CAT_ID":63300,"ELEMENT_SET_NO":999,"REV_AT_EPOCH":5301,"BSTAR":0.00015832817,"MEAN_MOTION_DOT":9.51e-6,"MEAN_MOTION_DDOT":0},{"OBJECT_NAME":"KINEIS-4C","OBJECT_ID":"2025-056B","EPOCH":"2026-03-15T06:31:19.339104","MEAN_MOTION":14.72310917,"ECCENTRICITY":4.476e-5,"INCLINATION":97.9937,"RA_OF_ASC_NODE":200.6512,"ARG_OF_PERICENTER":133.207,"MEAN_ANOMALY":226.9175,"EPHEMERIS_TYPE":0,"CLASSIFICATION_TYPE":"U","NORAD_CAT_ID":63301,"ELEMENT_SET_NO":999,"REV_AT_EPOCH":5331,"BSTAR":0.00039510425,"MEAN_MOTION_DOT":2.449e-5,"MEAN_MOTION_DDOT":0},{"OBJECT_NAME":"KINEIS-4D","OBJECT_ID":"2025-056C","EPOCH":"2026-03-15T06:38:27.692160","MEAN_MOTION":14.72328035,"ECCENTRICITY":7.011e-5,"INCLINATION":97.9924,"RA_OF_ASC_NODE":200.6326,"ARG_OF_PERICENTER":223.0951,"MEAN_ANOMALY":137.0202,"EPHEMERIS_TYPE":0,"CLASSIFICATION_TYPE":"U","NORAD_CAT_ID":63302,"ELEMENT_SET_NO":999,"REV_AT_EPOCH":5331,"BSTAR":0.00043180221,"MEAN_MOTION_DOT":2.682e-5,"MEAN_MOTION_DDOT":0},{"OBJECT_NAME":"KINEIS-4A","OBJECT_ID":"2025-056D","EPOCH":"2026-03-15T05:48:12.888576","MEAN_MOTION":14.72353254,"ECCENTRICITY":0.00021054,"INCLINATION":97.9943,"RA_OF_ASC_NODE":200.5272,"ARG_OF_PERICENTER":211.6647,"MEAN_ANOMALY":148.4434,"EPHEMERIS_TYPE":0,"CLASSIFICATION_TYPE":"U","NORAD_CAT_ID":63303,"ELEMENT_SET_NO":999,"REV_AT_EPOCH":5330,"BSTAR":0.00040523802,"MEAN_MOTION_DOT":2.515e-5,"MEAN_MOTION_DDOT":0},{"OBJECT_NAME":"KINEIS-4B","OBJECT_ID":"2025-056E","EPOCH":"2026-03-15T07:01:50.210400","MEAN_MOTION":14.72340343,"ECCENTRICITY":0.00028619,"INCLINATION":97.9941,"RA_OF_ASC_NODE":200.6226,"ARG_OF_PERICENTER":173.3173,"MEAN_ANOMALY":186.8074,"EPHEMERIS_TYPE":0,"CLASSIFICATION_TYPE":"U","NORAD_CAT_ID":63304,"ELEMENT_SET_NO":999,"REV_AT_EPOCH":5330,"BSTAR":0.00040964968,"MEAN_MOTION_DOT":2.543e-5,"MEAN_MOTION_DDOT":0}]
