KINEIS-5E               
1 62083U 24219C   26074.25528309  .00001025  00000+0  16976-3 0  9999
2 62083  97.9499 235.7583 0004213 130.3837 229.7739 14.72356190 69941
KINEIS-5A               
1 62084U 24219D   26074.28799008  .00000827  00000+0  13887-3 0  9996
2 62084  97.9685 235.9103 0003029 178.6438 181.4779 14.72201400 69957
KINEIS-5B               
1 62085U 24219E   26074.29720155  .00001874  00000+0  26623-3 0  9990
2 62085  97.9948 238.7396 0001899 173.9535 186.1699 14.78096189 70131
KINEIS-2C               
1 62929U 25028B   26074.29995779  .00001343  00000+0  22024-3 0  9994
2 62929  98.0263 129.3967 0000572  28.5915 331.5323 14.72334221 58797
KINEIS-2D               
1 62930U 25028C   26074.06297447  .00002135  00000+0  32207-3 0  9992
2 62930  97.9403 128.2951 0004400 133.5624 226.5951 14.75367250 58838
KINEIS-2E               
1 62931U 25028D   26074.05031442  .00001668  00000+0  24525-3 0  9997
2 62931  97.9070 127.6577 0002016 105.8828 254.2605 14.76735451 58887
KINEIS-2A               
1 62932U 25028E   26074.05734526  .00001359  00000+0  22388-3 0  9993
2 62932  98.0795 129.5303 0002716 184.7354 175.3828 14.72116697 58756
KINEIS-2B               
1 62934U 25028G   26074.14219208  .00001494  00000+0  23953-3 0  9999
2 62934  97.9781 128.6795 0004967  96.2195 263.9579 14.73133535 58811
KINEIS-4E               
1 63300U 25056A   26072.28835479  .00000951  00000+0  15833-3 0  9990
2 63300  97.9879 198.5336 0000922 169.2110 190.9117 14.72266799 53011
KINEIS-4C               
1 63301U 25056B   26074.27175161  .00002449  00000+0  39510-3 0  9999
2 63301  97.9937 200.6512 0000447 133.2070 226.9175 14.72310917 53315
KINEIS-4D               
1 63302U 25056C   26074.27670940  .00002682  00000+0  43180-3 0  9992
2 63302  97.9924 200.6326 0000701 223.0951 137.0202 14.72328035 53317
KINEIS-4A               
1 63303U 25056D   26074.24181584  .00002515  00000+0  40524-3 0  9995
2 63303  97.9943 200.5272 0002105 211.6647 148.4434 14.72353254 53306
KINEIS-4B               
1 63304U 25056E   26074.29294225  .00002543  00000+0  40965-3 0  9998
2 63304  97.9941 200.6226 0002861 173.3173 186.8074 14.72340343 53303
